IRIDIUM 36              
1 24967U 97056C   24259.02489919  .00001373  00000+0  45677-3 0  9994
2 24967  86.3919 288.5701 0002240  97.3254 262.8198 14.37031726412697
IRIDIUM 39              
1 25042U 97069D   24258.90604120  .00002613  00000+0  69204-3 0  9992
2 25042  86.3952 329.1612 0019678 140.8435 219.4196 14.48337435409106
IRIDIUM 38              
1 25043U 97069E   24259.21267476  .00001962  00000+0  64894-3 0  9993
2 25043  86.4020 348.8455 0000393  60.9541 299.1696 14.37523706406700
IRIDIUM 42              
1 25077U 97077A   24259.23335634  .00001958  00000+0  67027-3 0  9999
2 25077  86.4025 354.6623 0001535  82.1822 277.9548 14.35801689401736
IRIDIUM 44              
1 25078U 97077B   24258.74493821  .00001880  00000+0  59553-3 0  9997
2 25078  86.4002 337.5406 0002016 145.5809 214.5521 14.39644951404063
IRIDIUM 45              
1 25104U 97082A   24258.83586367  .00027682  00000+0  14058-2 0  9999
2 25104  86.3723 180.0523 0144956 272.8204  85.6450 15.07969460410590
IRIDIUM 24              
1 25105U 97082B   24259.13843537  .00002219  00000+0  67798-3 0  9998
2 25105  86.3971 196.8067 0008987 266.9592  93.0579 14.41459546403831
IRIDIUM 51              
1 25262U 98018A   24258.88693705  .00033766  00000+0  13752-2 0  9994
2 25262  86.3992 189.5487 0130264 209.2134 150.1781 15.16781841404985
